{
    "links": {
        "self": "http://www.neowsapp.com/rest/v1/neo/3826794?api_key=iIulBulltgU6a56xZRHN4H3l9WmuAYTsLGpBGhQ2"
    },
    "id": "3826794",
    "neo_reference_id": "3826794",
    "name": "(2018 PV21)",
    "designation": "2018 PV21",
    "nasa_jpl_url": "http://ssd.jpl.nasa.gov/sbdb.cgi?sstr=3826794",
    "absolute_magnitude_h": 24.6,
    "estimated_diameter": {
        "kilometers": {
            "estimated_diameter_min": 0.0319561887,
            "estimated_diameter_max": 0.0714562102
        },
        "meters": {
            "estimated_diameter_min": 31.9561886721,
            "estimated_diameter_max": 71.4562101727
        },
        "miles": {
            "estimated_diameter_min": 0.0198566489,
            "estimated_diameter_max": 0.0444008168
        },
        "feet": {
            "estimated_diameter_min": 104.8431420431,
            "estimated_diameter_max": 234.436392583
        }
    },
    "is_potentially_hazardous_asteroid": false,
    "close_approach_data": [
        {
            "close_approach_date": "2018-09-15",
            "close_approach_date_full": "2018-Sep-15 13:44",
            "epoch_date_close_approach": 1537019040000,
            "relative_velocity": {
                "kilometers_per_second": "5.5660258161",
                "kilometers_per_hour": "20037.6929380673",
                "miles_per_hour": "12450.6431481008"
            },
            "miss_distance": {
                "astronomical": "0.1136270807",
                "lunar": "44.2009343923",
                "kilometers": "16998369.247038109",
                "miles": "10562296.8698955442"
            },
            "orbiting_body": "Earth"
        }
    ],
    "orbital_data": {
        "orbit_id": "2",
        "orbit_determination_date": "2018-09-06 06:52:58",
        "first_observation_date": "2018-08-11",
        "last_observation_date": "2018-09-05",
        "data_arc_in_days": 25,
        "observations_used": 13,
        "orbit_uncertainty": "7",
        "minimum_orbit_intersection": ".106477",
        "jupiter_tisserand_invariant": "3.699",
        "epoch_osculation": "2459000.5",
        "eccentricity": ".4540038502756499",
        "semi_major_axis": "2.000844857136613",
        "inclination": "6.476401935906501",
        "ascending_node_longitude": "142.5923961594472",
        "orbital_period": "1033.757205881169",
        "perihelion_distance": "1.092453588192358",
        "perihelion_argument": "217.2410724270256",
        "aphelion_distance": "2.909236126080867",
        "perihelion_time": "2459419.840996590233",
        "mean_anomaly": "213.9669103019175",
        "mean_motion": ".348244247248693",
        "equinox": "J2000",
        "orbit_class": {
            "orbit_class_type": "AMO",
            "orbit_class_description": "Near-Earth asteroid orbits similar to that of 1221 Amor",
            "orbit_class_range": "1.017 AU < q (perihelion) < 1.3 AU"
        }
    },
    "is_sentry_object": false
}